$$SOE
2460154.500000000, A.D. 2023-Jul-29 00:00:00.0000, 2.456404833878503E+08, -3.639331097365358E+08, 8.124757900295517E+07,
2460161.500000000, A.D. 2023-Aug-05 00:00:00.0000, 2.540080215368034E+08, -3.589501861537738E+08, 8.052680330740428E+07,
2460168.500000000, A.D. 2023-Aug-12 00:00:00.0000, 2.622375027426720E+08, -3.537722016255221E+08, 7.976226746400100E+07,
2460175.500000000, A.D. 2023-Aug-19 00:00:00.0000, 2.703249174418657E+08, -3.484025976017848E+08, 7.895452821220213E+07,
2460182.500000000, A.D. 2023-Aug-26 00:00:00.0000, 2.782663302007322E+08, -3.428448598163410E+08, 7.810415355167186E+07,
2460189.500000000, A.D. 2023-Sep-02 00:00:00.0000, 2.860578784583278E+08, -3.371025176302923E+08, 7.721172257181194E+07,
2460196.500000000, A.D. 2023-Sep-09 00:00:00.0000, 2.936957713345539E+08, -3.311791435803232E+08, 7.627782529024041E+07,
2460203.500000000, A.D. 2023-Sep-16 00:00:00.0000, 3.011762886747403E+08, -3.250783531875445E+08, 7.530306248015940E+07,
2460210.500000000, A.D. 2023-Sep-23 00:00:00.0000, 3.084957807494742E+08, -3.188038047378604E+08, 7.428804547187260E+07,
2460217.500000000, A.D. 2023-Sep-30 00:00:00.0000, 3.156506682723056E+08, -3.123591978413784E+08, 7.323339605700240E+07,
2460224.500000000, A.D. 2023-Oct-07 00:00:00.0000, 3.226374403825920E+08, -3.057482713118814E+08, 7.213974666659486E+07,
2460231.500000000, A.D. 2023-Oct-14 00:00:00.0000, 3.294526516332574E+08, -2.989748036758262E+08, 7.100774045574152E+07,
2460238.500000000, A.D. 2023-Oct-21 00:00:00.0000, 3.360929212130116E+08, -2.920426147033136E+08, 6.983803112838650E+07,
2460245.500000000, A.D. 2023-Oct-28 00:00:00.0000, 3.425549329809321E+08, -2.849555656972737E+08, 6.863128281727171E+07,
2460252.500000000, A.D. 2023-Nov-04 00:00:00.0000, 3.488354350655194E+08, -2.777175593084350E+08, 6.738817007054645E+07,
2460259.500000000, A.D. 2023-Nov-11 00:00:00.0000, 3.549312392075965E+08, -2.703325394731418E+08, 6.610937787949240E+07,
2460266.500000000, A.D. 2023-Nov-18 00:00:00.0000, 3.608392200683386E+08, -2.628044915355177E+08, 6.479560172172587E+07,
2460273.500000000, A.D. 2023-Nov-25 00:00:00.0000, 3.665563145770649E+08, -2.551374425287734E+08, 6.344754761480515E+07,
2460280.500000000, A.D. 2023-Dec-02 00:00:00.0000, 3.720795213486191E+08, -2.473354616243916E+08, 6.206593217643116E+07,
2460287.500000000, A.D. 2023-Dec-09 00:00:00.0000, 3.774059002494035E+08, -2.394026608055057E+08, 6.065148267874216E+07,
2460294.500000000, A.D. 2023-Dec-16 00:00:00.0000, 3.825325724007460E+08, -2.313431957486554E+08, 5.920493707059520E+07,
2460301.500000000, A.D. 2023-Dec-23 00:00:00.0000, 3.874567209702989E+08, -2.231612662229661E+08, 5.772704399157149E+07,
2460308.500000000, A.D. 2023-Dec-30 00:00:00.0000, 3.921755914147899E+08, -2.148611149554568E+08, 5.621856298647235E+07,
2460315.500000000, A.D. 2024-Jan-06 00:00:00.0000, 3.966864894040509E+08, -2.064470273223757E+08, 5.468026488969563E+07,
2460322.500000000, A.D. 2024-Jan-13 00:00:00.0000, 4.009867795994717E+08, -1.979233336709873E+08, 5.311293193963579E+07,
2460329.500000000, A.D. 2024-Jan-20 00:00:00.0000, 4.050738865117883E+08, -1.892944111835314E+08, 5.151735776192374E+07,
2460336.500000000, A.D. 2024-Jan-27 00:00:00.0000, 4.089452954121832E+08, -1.805646846283093E+08, 4.989434746036129E+07,
2460343.500000000, A.D. 2024-Feb-03 00:00:00.0000, 4.125985528709984E+08, -1.717386269441463E+08, 4.824471777681793E+07,
2460350.500000000, A.D. 2024-Feb-10 00:00:00.0000, 4.160312672038928E+08, -1.628207599468421E+08, 4.656929727027191E+07,
2460357.500000000, A.D. 2024-Feb-17 00:00:00.0000, 4.192411089666881E+08, -1.538156551470040E+08, 4.486892650234479E+07,
2460364.500000000, A.D. 2024-Feb-24 00:00:00.0000, 4.222258115375980E+08, -1.447279346617472E+08, 4.314445822671135E+07,
2460371.500000000, A.D. 2024-Mar-02 00:00:00.0000, 4.249831718190643E+08, -1.355622722501586E+08, 4.139675757652521E+07,
2460378.500000000, A.D. 2024-Mar-09 00:00:00.0000, 4.275110512005275E+08, -1.263233945327666E+08, 3.962670223134781E+07,
2460385.500000000, A.D. 2024-Mar-16 00:00:00.0000, 4.298073771794234E+08, -1.170160821943929E+08, 3.783518254263057E+07,
2460392.500000000, A.D. 2024-Mar-23 00:00:00.0000, 4.318701455399587E+08, -1.076451700570365E+08, 3.602310171739187E+07,
2460399.500000000, A.D. 2024-Mar-30 00:00:00.0000, 4.336974208539691E+08, -9.821554604676910E+07, 3.419137626354950E+07,
2460406.500000000, A.D. 2024-Apr-06 00:00:00.0000, 4.352873355636059E+08, -8.873215242146456E+07, 3.234093639770225E+07,
2460413.500000000, A.D. 2024-Apr-13 00:00:00.0000, 4.366380911969604E+08, -7.919998842036176E+07, 3.047272615652964E+07,
2460420.500000000, A.D. 2024-Apr-20 00:00:00.0000, 4.377479607646142E+08, -6.962411165399840E+07, 2.858770351653083E+07,
2460427.500000000, A.D. 2024-Apr-27 00:00:00.0000, 4.386152908216864E+08, -6.000963879029473E+07, 2.668684061438216E+07,
2460434.500000000, A.D. 2024-May-04 00:00:00.0000, 4.392385032861906E+08, -5.036174623382934E+07, 2.477112400168422E+07,
2460441.500000000, A.D. 2024-May-11 00:00:00.0000, 4.396160972566491E+08, -4.068567089364675E+07, 2.284155490359797E+07,
2460448.500000000, A.D. 2024-May-18 00:00:00.0000, 4.397466509167332E+08, -3.098671101229890E+07, 2.089914947547532E+07,
2460455.500000000, A.D. 2024-May-25 00:00:00.0000, 4.396288235574123E+08, -2.127022705843710E+07, 1.894493905435384E+07,
2460462.500000000, A.D. 2024-Jun-01 00:00:00.0000, 4.392613577813561E+08, -1.154164273595527E+07, 1.697997039451988E+07,
2460469.500000000, A.D. 2024-Jun-08 00:00:00.0000, 4.386430821393382E+08, -1.806446128097407E+06, 1.500530586163939E+07,
2460476.500000000, A.D. 2024-Jun-15 00:00:00.0000, 4.377729145994747E+08, 7.929809574353253E+06, 1.302202359200939E+07,
2460483.500000000, A.D. 2024-Jun-22 00:00:00.0000, 4.366498658458737E+08, 1.766150694438490E+07, 1.103121780409627E+07,
2460490.500000000, A.D. 2024-Jun-29 00:00:00.0000, 4.352730402907464E+08, 2.738296497711580E+07, 9.033999307491394E+06,
2460497.500000000, A.D. 2024-Jul-06 00:00:00.0000, 4.336416374495339E+08, 3.708843707019520E+07, 7.031495763437755E+06,
2460504.500000000, A.D. 2024-Jul-13 00:00:00.0000, 4.317549556293249E+08, 4.677210915799383E+07, 5.024851747184712E+06,
2460511.500000000, A.D. 2024-Jul-20 00:00:00.0000, 4.296123959469555E+08, 5.642809915784984E+07, 3.015228886638075E+06,
2460518.500000000, A.D. 2024-Jul-27 00:00:00.0000, 4.272134660241556E+08, 6.605045677862428E+07, 1.003806057468694E+06,
2460525.500000000, A.D. 2024-Aug-03 00:00:00.0000, 4.245577836358964E+08, 7.563316332654954E+07, -1.008220422840662E+06,
2460532.500000000, A.D. 2024-Aug-10 00:00:00.0000, 4.216450804805534E+08, 8.517013151448214E+07, -3.019636619660415E+06,
2460539.500000000, A.D. 2024-Aug-17 00:00:00.0000, 4.184752061217747E+08, 9.465520530764049E+07, -5.029210829430312E+06,
2460546.500000000, A.D. 2024-Aug-24 00:00:00.0000, 4.150481321323566E+08, 1.040821597957354E+08, -7.035693458263293E+06,
2460553.500000000, A.D. 2024-Aug-31 00:00:00.0000, 4.113639565582599E+08, 1.134447010427291E+08, -9.037816949243270E+06,
2460560.500000000, A.D. 2024-Sep-07 00:00:00.0000, 4.074229090702155E+08, 1.227364660531646E+08, -1.103429578459361E+07,
2460567.500000000, A.D. 2024-Sep-14 00:00:00.0000, 4.032253568874446E+08, 1.319510238636944E+08, -1.302382649229407E+07,
2460574.500000000, A.D. 2024-Sep-21 00:00:00.0000, 3.987718094431700E+08, 1.410818781883786E+08, -1.500508744022110E+07,
2460581.500000000, A.D. 2024-Sep-28 00:00:00.0000, 3.940629213075455E+08, 1.501224684072079E+08, -1.697673863996896E+07,
2460588.500000000, A.D. 2024-Oct-05 00:00:00.0000, 3.890994970389583E+08, 1.590661689132225E+08, -1.893742190058698E+07,
2460595.500000000, A.D. 2024-Oct-12 00:00:00.0000, 3.838824975988393E+08, 1.679062898128951E+08, -2.088576105924478E+07,
2460602.500000000, A.D. 2024-Oct-19 00:00:00.0000, 3.784130465743385E+08, 1.766360787260887E+08, -2.282036215377597E+07,
2460609.500000000, A.D. 2024-Oct-26 00:00:00.0000, 3.726924361716325E+08, 1.852487229024476E+08, -2.473981360312746E+07,
2460616.500000000, A.D. 2024-Nov-02 00:00:00.0000, 3.667221332312614E+08, 1.937373515252987E+08, -2.664268643508387E+07,
2460623.500000000, A.D. 2024-Nov-09 00:00:00.0000, 3.605037853552669E+08, 2.020950382447447E+08, -2.852753457227850E+07,
2460630.500000000, A.D. 2024-Nov-16 00:00:00.0000, 3.540392271647667E+08, 2.103148039625815E+08, -3.039289518300220E+07,
2460637.500000000, A.D. 2024-Nov-23 00:00:00.0000, 3.473304867273406E+08, 2.183896198424780E+08, -3.223728910975882E+07,
2460644.500000000, A.D. 2024-Nov-30 00:00:00.0000, 3.403797923547364E+08, 2.263124105264761E+08, -3.405922140322054E+07,
2460651.500000000, A.D. 2024-Dec-07 00:00:00.0000, 3.331895801815863E+08, 2.340760580008464E+08, -3.585718197122964E+07,
2460658.500000000, A.D. 2024-Dec-14 00:00:00.0000, 3.257625018230396E+08, 2.416734073550003E+08, -3.762964618500831E+07,
2460665.500000000, A.D. 2024-Dec-21 00:00:00.0000, 3.181014297743172E+08, 2.490972732145464E+08, -3.937507533600368E+07,
2460672.500000000, A.D. 2024-Dec-28 00:00:00.0000, 3.102094625084146E+08, 2.563404439052476E+08, -4.109191737220502E+07,
2460679.500000000, A.D. 2025-Jan-04 00:00:00.0000, 3.020899318484410E+08, 2.633956857435102E+08, -4.277860796323109E+07,
2460686.500000000, A.D. 2025-Jan-11 00:00:00.0000, 2.937464107644599E+08, 2.702557491341107E+08, -4.443357159560291E+07,
2460693.500000000, A.D. 2025-Jan-18 00:00:00.0000, 2.851827206484567E+08, 2.769133755821639E+08, -4.605522269359780E+07,
2460700.500000000, A.D. 2025-Jan-25 00:00:00.0000, 2.764029382829345E+08, 2.833613051719484E+08, -4.764196683218835E+07,
2460707.500000000, A.D. 2025-Feb-01 00:00:00.0000, 2.674114026641240E+08, 2.895922845078138E+08, -4.919220206792408E+07,
2460714.500000000, A.D. 2025-Feb-08 00:00:00.0000, 2.582127217066554E+08, 2.955990751592149E+08, -5.070432039755227E+07,
2460721.500000000, A.D. 2025-Feb-15 00:00:00.0000, 2.488117788223521E+08, 3.013744626097021E+08, -5.217670935432514E+07,
$$EOE